O3B MPOWER F1           
1 54755U 22174A   24071.53395248 -.00000020  00000+0  00000+0 0  9996
2 54755   0.0645   6.4036 0006482 352.5842 251.2620  5.00118324 23952
